[
  {
    "OBJECT_NAME": "STARLINK-30587",
    "OBJECT_ID": "23158P",
    "EPOCH": "2025-11-11T07:07:35.966784",
    "MEAN_MOTION": 15.02539282,
    "ECCENTRICITY": 0.0001277,
    "INCLINATION": 43.0027,
    "RA_OF_ASC_NODE": 313.5029,
    "ARG_OF_PERICENTER": 275.7035,
    "MEAN_ANOMALY": 84.3661,
    "EPHEMERIS_TYPE": 0,
    "CLASSIFICATION_TYPE": "U",
    "NORAD_CAT_ID": 58064,
    "ELEMENT_SET_NO": 999,
    "REV_AT_EPOCH": 11572,
    "BSTAR": 3.8925e-05,
    "MEAN_MOTION_DOT": 3.22e-06,
    "MEAN_MOTION_DDOT": 0.0,
    "TLE_LINE1": "1 58064U 23158P   25315.29694406  .00000322  00000+0  38925-4 0  9995",
    "TLE_LINE2": "2 58064  43.0027 313.5029 0001277 275.7035  84.3661 15.02539282115721",
    "COMMENT": "Grouped by shell and plane from TLE"
  },
  {
    "OBJECT_NAME": "STARLINK-30576",
    "OBJECT_ID": "23158Q",
    "EPOCH": "2025-11-11T01:23:02.478048",
    "MEAN_MOTION": 15.02560343,
    "ECCENTRICITY": 0.0001132,
    "INCLINATION": 43.0044,
    "RA_OF_ASC_NODE": 315.1498,
    "ARG_OF_PERICENTER": 269.6842,
    "MEAN_ANOMALY": 90.387,
    "EPHEMERIS_TYPE": 0,
    "CLASSIFICATION_TYPE": "U",
    "NORAD_CAT_ID": 58065,
    "ELEMENT_SET_NO": 999,
    "REV_AT_EPOCH": 11568,
    "BSTAR": 0.0,
    "MEAN_MOTION_DOT": -2.615e-05,
    "MEAN_MOTION_DDOT": 0.0,
    "TLE_LINE1": "1 58065U 23158Q   25315.05766757 -.00002615  00000+0 -17843-3 0  9993",
    "TLE_LINE2": "2 58065  43.0044 315.1498 0001132 269.6842  90.3870 15.02560343115683",
    "COMMENT": "Grouped by shell and plane from TLE"
  },
  {
    "OBJECT_NAME": "STARLINK-30571",
    "OBJECT_ID": "23158R",
    "EPOCH": "2025-11-11T06:38:50.166528",
    "MEAN_MOTION": 15.02537618,
    "ECCENTRICITY": 0.0001033,
    "INCLINATION": 43.0052,
    "RA_OF_ASC_NODE": 313.3534,
    "ARG_OF_PERICENTER": 280.0376,
    "MEAN_ANOMALY": 80.035,
    "EPHEMERIS_TYPE": 0,
    "CLASSIFICATION_TYPE": "U",
    "NORAD_CAT_ID": 58066,
    "ELEMENT_SET_NO": 999,
    "REV_AT_EPOCH": 11572,
    "BSTAR": 0.00012836,
    "MEAN_MOTION_DOT": 1.531e-05,
    "MEAN_MOTION_DDOT": 0.0,
    "TLE_LINE1": "1 58066U 23158R   25315.27696952  .00001531  00000+0  12836-3 0  9998",
    "TLE_LINE2": "2 58066  43.0052 313.3534 0001033 280.0376  80.0350 15.02537618115726",
    "COMMENT": "Grouped by shell and plane from TLE"
  },
  {
    "OBJECT_NAME": "STARLINK-30567",
    "OBJECT_ID": "23158S",
    "EPOCH": "2025-11-11T01:43:49.719936",
    "MEAN_MOTION": 15.02540467,
    "ECCENTRICITY": 0.0001079,
    "INCLINATION": 43.0037,
    "RA_OF_ASC_NODE": 315.2396,
    "ARG_OF_PERICENTER": 275.851,
    "MEAN_ANOMALY": 84.2209,
    "EPHEMERIS_TYPE": 0,
    "CLASSIFICATION_TYPE": "U",
    "NORAD_CAT_ID": 58067,
    "ELEMENT_SET_NO": 999,
    "REV_AT_EPOCH": 11568,
    "BSTAR": 2.1351000000000003e-05,
    "MEAN_MOTION_DOT": 8.5e-07,
    "MEAN_MOTION_DDOT": 0.0,
    "TLE_LINE1": "1 58067U 23158S   25315.07210324  .00000085  00000+0  21351-4 0  9998",
    "TLE_LINE2": "2 58067  43.0037 315.2396 0001079 275.8510  84.2209 15.02540467115689",
    "COMMENT": "Grouped by shell and plane from TLE"
  },
  {
    "OBJECT_NAME": "STARLINK-30569",
    "OBJECT_ID": "23158T",
    "EPOCH": "2025-11-11T02:10:51.022848",
    "MEAN_MOTION": 15.02534747,
    "ECCENTRICITY": 0.0001356,
    "INCLINATION": 43.0039,
    "RA_OF_ASC_NODE": 314.5352,
    "ARG_OF_PERICENTER": 269.9251,
    "MEAN_ANOMALY": 90.1436,
    "EPHEMERIS_TYPE": 0,
    "CLASSIFICATION_TYPE": "U",
    "NORAD_CAT_ID": 58068,
    "ELEMENT_SET_NO": 999,
    "REV_AT_EPOCH": 11569,
    "BSTAR": 0.00020445,
    "MEAN_MOTION_DOT": 2.559e-05,
    "MEAN_MOTION_DDOT": 0.0,
    "TLE_LINE1": "1 58068U 23158T   25315.09086832  .00002559  00000+0  20445-3 0  9996",
    "TLE_LINE2": "2 58068  43.0039 314.5352 0001356 269.9251  90.1436 15.02534747115693",
    "COMMENT": "Grouped by shell and plane from TLE"
  },
  {
    "OBJECT_NAME": "STARLINK-30532",
    "OBJECT_ID": "23158V",
    "EPOCH": "2025-11-11T06:53:13.317216",
    "MEAN_MOTION": 15.02535956,
    "ECCENTRICITY": 0.0001037,
    "INCLINATION": 43.004,
    "RA_OF_ASC_NODE": 313.4271,
    "ARG_OF_PERICENTER": 273.4747,
    "MEAN_ANOMALY": 86.5976,
    "EPHEMERIS_TYPE": 0,
    "CLASSIFICATION_TYPE": "U",
    "NORAD_CAT_ID": 58070,
    "ELEMENT_SET_NO": 999,
    "REV_AT_EPOCH": 11572,
    "BSTAR": 7.3276e-05,
    "MEAN_MOTION_DOT": 7.86e-06,
    "MEAN_MOTION_DDOT": 0.0,
    "TLE_LINE1": "1 58070U 23158V   25315.28695969  .00000786  00000+0  73276-4 0  9998",
    "TLE_LINE2": "2 58070  43.0040 313.4271 0001037 273.4747  86.5976 15.02535956115727",
    "COMMENT": "Grouped by shell and plane from TLE"
  },
  {
    "OBJECT_NAME": "STARLINK-30506",
    "OBJECT_ID": "23158X",
    "EPOCH": "2025-11-11T00:20:43.449792",
    "MEAN_MOTION": 15.02532176,
    "ECCENTRICITY": 0.0001037,
    "INCLINATION": 43.0046,
    "RA_OF_ASC_NODE": 314.821,
    "ARG_OF_PERICENTER": 260.8425,
    "MEAN_ANOMALY": 99.23,
    "EPHEMERIS_TYPE": 0,
    "CLASSIFICATION_TYPE": "U",
    "NORAD_CAT_ID": 58072,
    "ELEMENT_SET_NO": 999,
    "REV_AT_EPOCH": 11568,
    "BSTAR": 3.9659e-05,
    "MEAN_MOTION_DOT": 3.32e-06,
    "MEAN_MOTION_DDOT": 0.0,
    "TLE_LINE1": "1 58072U 23158X   25315.01439178  .00000332  00000+0  39659-4 0  9993",
    "TLE_LINE2": "2 58072  43.0046 314.8210 0001037 260.8425  99.2300 15.02532176115684",
    "COMMENT": "Grouped by shell and plane from TLE"
  }
]